{"type": "FeatureCollection", "features": [ {"type": "Feature", "properties": {"norad_id": 66625, "name": "STARLINK-35929", "group": "last-30-days", "lat": -22.84236109694414, "lon": 118.49815514119076, "alt_km": 450.73913764765985, "timestamp": "2025-12-23T07:45:08.114755+00:00", "meta": {"OBJECT_NAME": "STARLINK-35929", "OBJECT_ID": "2025-271J", "EPOCH": "2025-12-22T22:00:03.000096", "MEAN_MOTION": 15.39580281, "ECCENTRICITY": 8.406e-05, "INCLINATION": 53.1603, "RA_OF_ASC_NODE": 138.8223, "ARG_OF_PERICENTER": 79.1294, "MEAN_ANOMALY": 158.6823, "EPHEMERIS_TYPE": 0, "CLASSIFICATION_TYPE": "U", "NORAD_CAT_ID": 66625, "ELEMENT_SET_NO": 999, "REV_AT_EPOCH": 587, "BSTAR": 0.0012779919, "MEAN_MOTION_DOT": 0.00050994, "MEAN_MOTION_DDOT": 0}, "tle": {"line1": "1 66625U 25271J   25356.91670139  .00050994  00000+0  12780-2 0  9995", "line2": "2 66625  53.1603 138.8223 0000840  79.1294 158.6823 15.39580281  5871"}}, "geometry": {"type": "Point", "coordinates": [118.49815514119076, -22.84236109694414]}}, {"type": "Feature", "properties": {"norad_id": 66626, "name": "STARLINK-35902", "group": "last-30-days", "lat": -50.23942163612085, "lon": 21.359494227837924, "alt_km": 452.6026328182161, "timestamp": "2025-12-23T07:45:08.114765+00:00", "meta": {"OBJECT_NAME": "STARLINK-35902", "OBJECT_ID": "2025-271K", "EPOCH": "2025-12-22T19:44:54.680640", "MEAN_MOTION": 15.39621347, "ECCENTRICITY": 9.707e-05, "INCLINATION": 53.1607, "RA_OF_ASC_NODE": 139.4172, "ARG_OF_PERICENTER": 76.8185, "MEAN_ANOMALY": 283.2929, "EPHEMERIS_TYPE": 0, "CLASSIFICATION_TYPE": "U", "NORAD_CAT_ID": 66626, "ELEMENT_SET_NO": 999, "REV_AT_EPOCH": 576, "BSTAR": 0.00029892068, "MEAN_MOTION_DOT": 0.00011576, "MEAN_MOTION_DDOT": 0}, "tle": {"line1": "1 66626U 25271K   25356.82285510  .00011576  00000+0  29892-3 0  9997", "line2": "2 66626  53.1607 139.4172 0000970  76.8185 283.2929 15.39621347  5762"}}, "geometry": {"type": "Point", "coordinates": [21.359494227837924, -50.23942163612085]}}, {"type": "Feature", "properties": {"norad_id": 66627, "name": "STARLINK-35904", "group": "last-30-days", "lat": -40.762339250506614, "lon": 96.69597342624226, "alt_km": 451.97879393243966, "timestamp": "2025-12-23T07:45:08.114775+00:00", "meta": {"OBJECT_NAME": "STARLINK-35904", "OBJECT_ID": "2025-271L", "EPOCH": "2025-12-22T19:31:32.338272", "MEAN_MOTION": 15.39618173, "ECCENTRICITY": 7.079e-05, "INCLINATION": 53.1608, "RA_OF_ASC_NODE": 139.3573, "ARG_OF_PERICENTER": 95.2529, "MEAN_ANOMALY": 264.8557, "EPHEMERIS_TYPE": 0, "CLASSIFICATION_TYPE": "U", "NORAD_CAT_ID": 66627, "ELEMENT_SET_NO": 999, "REV_AT_EPOCH": 572, "BSTAR": 0.00079469087, "MEAN_MOTION_DOT": 0.00031517, "MEAN_MOTION_DDOT": 0}, "tle": {"line1": "1 66627U 25271L   25356.81356873  .00031517  00000+0  79469-3 0  9990", "line2": "2 66627  53.1608 139.3573 0000707  95.2529 264.8557 15.39618173  5724"}}, "geometry": {"type": "Point", "coordinates": [96.69597342624226, -40.762339250506614]}}, {"type": "Feature", "properties": {"norad_id": 66628, "name": "STARLINK-35862", "group": "last-30-days", "lat": 50.52849584661709, "lon": -157.74190451767936, "alt_km": 434.34650068616975, "timestamp": "2025-12-23T07:45:08.114785+00:00", "meta": {"OBJECT_NAME": "STARLINK-35862", "OBJECT_ID": "2025-271M", "EPOCH": "2025-12-22T22:00:03.000096", "MEAN_MOTION": 15.43176086, "ECCENTRICITY": 0.00010455, "INCLINATION": 53.1608, "RA_OF_ASC_NODE": 138.6235, "ARG_OF_PERICENTER": 65.4396, "MEAN_ANOMALY": 272.1584, "EPHEMERIS_TYPE": 0, "CLASSIFICATION_TYPE": "U", "NORAD_CAT_ID": 66628, "ELEMENT_SET_NO": 999, "REV_AT_EPOCH": 587, "BSTAR": -0.050569139, "MEAN_MOTION_DOT": -0.02026619, "MEAN_MOTION_DDOT": 0}, "tle": {"line1": "1 66628U 25271M   25356.91670139 -.02026619  00000+0 -50569-1 0  9995", "line2": "2 66628  53.1608 138.6235 0001045  65.4396 272.1584 15.43176086  5874"}}, "geometry": {"type": "Point", "coordinates": [-157.74190451767936, 50.52849584661709]}}, {"type": "Feature", "properties": {"norad_id": 66629, "name": "STARLINK-35956", "group": "last-30-days", "lat": 32.76893560763467, "lon": -72.28743497265897, "alt_km": 413.67520552360656, "timestamp": "2025-12-23T07:45:08.114802+00:00", "meta": {"OBJECT_NAME": "STARLINK-35956", "OBJECT_ID": "2025-271N", "EPOCH": "2025-12-18T16:00:00.999936", "MEAN_MOTION": 15.49463337, "ECCENTRICITY": 5.424e-05, "INCLINATION": 53.1591, "RA_OF_ASC_NODE": 158.846, "ARG_OF_PERICENTER": 63.7637, "MEAN_ANOMALY": 4.4961, "EPHEMERIS_TYPE": 0, "CLASSIFICATION_TYPE": "U", "NORAD_CAT_ID": 66629, "ELEMENT_SET_NO": 999, "REV_AT_EPOCH": 519, "BSTAR": 0.0002238515, "MEAN_MOTION_DOT": 0.00012088, "MEAN_MOTION_DDOT": 0}, "tle": {"line1": "1 66629U 25271N   25352.66667824  .00012088  00000+0  22385-3 0  9999", "line2": "2 66629  53.1591 158.8460 0000542  63.7637   4.4961 15.49463337  5194"}}, "geometry": {"type": "Point", "coordinates": [-72.28743497265897, 32.76893560763467]}}, {"type": "Feature", "properties": {"norad_id": 66630, "name": "STARLINK-35949", "group": "last-30-days", "lat": 52.92478831120084, "lon": -140.49378823924093, "alt_km": 422.0184720706711, "timestamp": "2025-12-23T07:45:08.114813+00:00", "meta": {"OBJECT_NAME": "STARLINK-35949", "OBJECT_ID": "2025-271P", "EPOCH": "2025-12-22T22:00:03.000096", "MEAN_MOTION": 15.45583681, "ECCENTRICITY": 0.00010823, "INCLINATION": 53.1606, "RA_OF_ASC_NODE": 138.6102, "ARG_OF_PERICENTER": 63.2822, "MEAN_ANOMALY": 280.4178, "EPHEMERIS_TYPE": 0, "CLASSIFICATION_TYPE": "U", "NORAD_CAT_ID": 66630, "ELEMENT_SET_NO": 999, "REV_AT_EPOCH": 587, "BSTAR": -0.0014156582, "MEAN_MOTION_DOT": -0.00068991, "MEAN_MOTION_DDOT": 0}, "tle": {"line1": "1 66630U 25271P   25356.91670139 -.00068991  00000+0 -14157-2 0  9999", "line2": "2 66630  53.1606 138.6102 0001082  63.2822 280.4178 15.45583681  5875"}}, "geometry": {"type": "Point", "coordinates": [-140.49378823924093, 52.92478831120084]}}, {"type": "Feature", "properties": {"norad_id": 66631, "name": "STARLINK-35965", "group": "last-30-days", "lat": 53.07444554045149, "lon": -137.30954598251657, "alt_km": 422.01729017707294, "timestamp": "2025-12-23T07:45:08.114825+00:00", "meta": {"OBJECT_NAME": "STARLINK-35965", "OBJECT_ID": "2025-271Q", "EPOCH": "2025-12-22T22:00:03.000096", "MEAN_MOTION": 15.45599199, "ECCENTRICITY": 0.00011898, "INCLINATION": 53.1606, "RA_OF_ASC_NODE": 138.607, "ARG_OF_PERICENTER": 55.8657, "MEAN_ANOMALY": 289.7496, "EPHEMERIS_TYPE": 0, "CLASSIFICATION_TYPE": "U", "NORAD_CAT_ID": 66631, "ELEMENT_SET_NO": 999, "REV_AT_EPOCH": 587, "BSTAR": -0.0020904582, "MEAN_MOTION_DOT": -0.00101308, "MEAN_MOTION_DDOT": 0}, "tle": {"line1": "1 66631U 25271Q   25356.91670139 -.00101308  00000+0 -20905-2 0  9998", "line2": "2 66631  53.1606 138.6070 0001189  55.8657 289.7496 15.45599199  5877"}}, "geometry": {"type": "Point", "coordinates": [-137.30954598251657, 53.07444554045149]}}, {"type": "Feature", "properties": {"norad_id": 66632, "name": "STARLINK-35973", "group": "last-30-days", "lat": -17.804978333921728, "lon": -28.90724441044999, "alt_km": 450.51899947448237, "timestamp": "2025-12-23T07:45:08.114842+00:00", "meta": {"OBJECT_NAME": "STARLINK-35973", "OBJECT_ID": "2025-271R", "EPOCH": "2025-12-22T19:58:17.359968", "MEAN_MOTION": 15.39615677, "ECCENTRICITY": 0.00011976, "INCLINATION": 53.1601, "RA_OF_ASC_NODE": 139.4739, "ARG_OF_PERICENTER": 72.6593, "MEAN_ANOMALY": 287.4543, "EPHEMERIS_TYPE": 0, "CLASSIFICATION_TYPE": "U", "NORAD_CAT_ID": 66632, "ELEMENT_SET_NO": 999, "REV_AT_EPOCH": 572, "BSTAR": 0.0010264476, "MEAN_MOTION_DOT": 0.00040872, "MEAN_MOTION_DDOT": 0}, "tle": {"line1": "1 66632U 25271R   25356.83214537  .00040872  00000+0  10264-2 0  9999", "line2": "2 66632  53.1601 139.4739 0001197  72.6593 287.4543 15.39615677  5724"}}, "geometry": {"type": "Point", "coordinates": [-28.90724441044999, -17.804978333921728]}}, {"type": "Feature", "properties": {"norad_id": 66633, "name": "STARLINK-35948", "group": "last-30-days", "lat": -19.249563640852045, "lon": -27.66750791756457, "alt_km": 450.56686127101966, "timestamp": "2025-12-23T07:45:08.114852+00:00", "meta": {"OBJECT_NAME": "STARLINK-35948", "OBJECT_ID": "2025-271S", "EPOCH": "2025-12-22T19:57:48.650112", "MEAN_MOTION": 15.39636546, "ECCENTRICITY": 0.00010815, "INCLINATION": 53.161, "RA_OF_ASC_NODE": 139.471, "ARG_OF_PERICENTER": 75.5148, "MEAN_ANOMALY": 284.5977, "EPHEMERIS_TYPE": 0, "CLASSIFICATION_TYPE": "U", "NORAD_CAT_ID": 66633, "ELEMENT_SET_NO": 999, "REV_AT_EPOCH": 576, "BSTAR": 0.00069560589, "MEAN_MOTION_DOT": 0.0002754, "MEAN_MOTION_DDOT": 0}, "tle": {"line1": "1 66633U 25271S   25356.83181308  .00027540  00000+0  69561-3 0  9991", "line2": "2 66633  53.1610 139.4710 0001081  75.5148 284.5977 15.39636546  5765"}}, "geometry": {"type": "Point", "coordinates": [-27.66750791756457, -19.249563640852045]}}, {"type": "Feature", "properties": {"norad_id": 66634, "name": "STARLINK-35967", "group": "last-30-days", "lat": -37.886414377932546, "lon": -7.209686270752033, "alt_km": 452.0801205125181, "timestamp": "2025-12-23T07:45:08.114862+00:00", "meta": {"OBJECT_NAME": "STARLINK-35967", "OBJECT_ID": "2025-271T", "EPOCH": "2025-12-22T19:51:05.896512", "MEAN_MOTION": 15.396415, "ECCENTRICITY": 0.00010506, "INCLINATION": 53.1591, "RA_OF_ASC_NODE": 139.4395, "ARG_OF_PERICENTER": 81.4585, "MEAN_ANOMALY": 278.6539, "EPHEMERIS_TYPE": 0, "CLASSIFICATION_TYPE": "U", "NORAD_CAT_ID": 66634, "ELEMENT_SET_NO": 999, "REV_AT_EPOCH": 572, "BSTAR": -0.00023061189, "MEAN_MOTION_DOT": -9.618e-05, "MEAN_MOTION_DDOT": 0}, "tle": {"line1": "1 66634U 25271T   25356.82715158 -.00009618  00000+0 -23061-3 0  9990", "line2": "2 66634  53.1591 139.4395 0001050  81.4585 278.6539 15.39641500  5720"}}, "geometry": {"type": "Point", "coordinates": [-7.209686270752033, -37.886414377932546]}}]}